$$SOE
2460154.500000000, A.D. 2023-Jul-29 00:00:00.0000, -5.447825928378242E+08, -1.857591686225571E+08, -7.346429138792433E+06,
2460161.500000000, A.D. 2023-Aug-05 00:00:00.0000, -5.426445255508944E+08, -1.911825270689234E+08, -8.832435776460186E+06,
2460168.500000000, A.D. 2023-Aug-12 00:00:00.0000, -5.403682439545937E+08, -1.965571857931140E+08, -1.031618945785166E+07,
2460175.500000000, A.D. 2023-Aug-19 00:00:00.0000, -5.379541098167070E+08, -2.018816971515104E+08, -1.179730771437934E+07,
2460182.500000000, A.D. 2023-Aug-26 00:00:00.0000, -5.354024610785545E+08, -2.071545995841532E+08, -1.327540623517080E+07,
2460189.500000000, A.D. 2023-Sep-02 00:00:00.0000, -5.327136122828278E+08, -2.123744160403281E+08, -1.475009845416950E+07,
2460196.500000000, A.D. 2023-Sep-09 00:00:00.0000, -5.298878549767796E+08, -2.175396524899008E+08, -1.622099514283575E+07,
2460203.500000000, A.D. 2023-Sep-16 00:00:00.0000, -5.269254579236905E+08, -2.226487965740680E+08, -1.768770402741399E+07,
2460210.500000000, A.D. 2023-Sep-23 00:00:00.0000, -5.238266667075645E+08, -2.277003161042403E+08, -1.914982944424552E+07,
2460217.500000000, A.D. 2023-Sep-30 00:00:00.0000, -5.205917030718735E+08, -2.326926562136614E+08, -2.060697190331125E+07,
2460224.500000000, A.D. 2023-Oct-07 00:00:00.0000, -5.172207663473077E+08, -2.376242356999860E+08, -2.205872738706209E+07,
2460231.500000000, A.D. 2023-Oct-14 00:00:00.0000, -5.137140359306042E+08, -2.424934458675781E+08, -2.350468674925248E+07,
2460238.500000000, A.D. 2023-Oct-21 00:00:00.0000, -5.100716715883793E+08, -2.472986502617487E+08, -2.494443537739776E+07,
2460245.500000000, A.D. 2023-Oct-28 00:00:00.0000, -5.062938130121955E+08, -2.520381830288785E+08, -2.637755280173963E+07,
2460252.500000000, A.D. 2023-Nov-04 00:00:00.0000, -5.023805798763252E+08, -2.567103466669009E+08, -2.780361219715551E+07,
2460259.500000000, A.D. 2023-Nov-11 00:00:00.0000, -4.983320722225385E+08, -2.613134097603009E+08, -2.922217984144352E+07,
2460266.500000000, A.D. 2023-Nov-18 00:00:00.0000, -4.941483709549309E+08, -2.658456047579740E+08, -3.063281455344622E+07,
2460273.500000000, A.D. 2023-Nov-25 00:00:00.0000, -4.898295383748324E+08, -2.703051257648685E+08, -3.203506711383577E+07,
2460280.500000000, A.D. 2023-Dec-02 00:00:00.0000, -4.853756187306281E+08, -2.746901263515574E+08, -3.342847966995488E+07,
2460287.500000000, A.D. 2023-Dec-09 00:00:00.0000, -4.807866387078690E+08, -2.789987174331354E+08, -3.481258513449322E+07,
2460294.500000000, A.D. 2023-Dec-16 00:00:00.0000, -4.760626075756319E+08, -2.832289651968656E+08, -3.618690660111253E+07,
2460301.500000000, A.D. 2023-Dec-23 00:00:00.0000, -4.712035166444960E+08, -2.873788883824755E+08, -3.755095675048590E+07,
2460308.500000000, A.D. 2023-Dec-30 00:00:00.0000, -4.662093393803337E+08, -2.914464538564554E+08, -3.890423703563462E+07,
2460315.500000000, A.D. 2024-Jan-06 00:00:00.0000, -4.610800339507600E+08, -2.954295728312262E+08, -4.024623667438482E+07,
2460322.500000000, A.D. 2024-Jan-13 00:00:00.0000, -4.558155450370131E+08, -2.993260995256320E+08, -4.157643188499615E+07,
2460329.500000000, A.D. 2024-Jan-20 00:00:00.0000, -4.504158036936339E+08, -3.031338291700620E+08, -4.289428522210610E+07,
2460336.500000000, A.D. 2024-Jan-27 00:00:00.0000, -4.448807272899117E+08, -3.068504946905081E+08, -4.419924477011800E+07,
2460343.500000000, A.D. 2024-Feb-03 00:00:00.0000, -4.392102199666856E+08, -3.104737630064602E+08, -4.549074322848082E+07,
2460350.500000000, A.D. 2024-Feb-10 00:00:00.0000, -4.334041733375922E+08, -3.140012312201002E+08, -4.676819693417871E+07,
2460357.500000000, A.D. 2024-Feb-17 00:00:00.0000, -4.274624673044407E+08, -3.174304226745851E+08, -4.803100482941467E+07,
2460364.500000000, A.D. 2024-Feb-24 00:00:00.0000, -4.213849709609759E+08, -3.207587828508722E+08, -4.927854737216367E+07,
2460371.500000000, A.D. 2024-Mar-02 00:00:00.0000, -4.151715435672409E+08, -3.239836751178820E+08, -5.051018539004113E+07,
2460378.500000000, A.D. 2024-Mar-09 00:00:00.0000, -4.088220354683636E+08, -3.271023763791272E+08, -5.172525888987075E+07,
2460385.500000000, A.D. 2024-Mar-16 00:00:00.0000, -4.023362885761982E+08, -3.301120723968399E+08, -5.292308583697118E+07,
2460392.500000000, A.D. 2024-Mar-23 00:00:00.0000, -3.957141365323561E+08, -3.330098516607895E+08, -5.410296079723299E+07,
2460399.500000000, A.D. 2024-Mar-30 00:00:00.0000, -3.889554068100961E+08, -3.357926978028057E+08, -5.526415323111404E+07,
2460406.500000000, A.D. 2024-Apr-06 00:00:00.0000, -3.820599245176450E+08, -3.384574838973197E+08, -5.640590573019232E+07,
2460413.500000000, A.D. 2024-Apr-13 00:00:00.0000, -3.750275143739290E+08, -3.410009677820600E+08, -5.752743244495060E+07,
2460420.500000000, A.D. 2024-Apr-20 00:00:00.0000, -3.678580018338637E+08, -3.434197856891071E+08, -5.862791738796532E+07,
2460427.500000000, A.D. 2024-Apr-27 00:00:00.0000, -3.605512149075761E+08, -3.457104447108246E+08, -5.970651250825869E+07,
2460434.500000000, A.D. 2024-May-04 00:00:00.0000, -3.531069866161327E+08, -3.478693147639492E+08, -6.076233559023672E+07,
2460441.500000000, A.D. 2024-May-11 00:00:00.0000, -3.455251578801052E+08, -3.498926201102663E+08, -6.179446799409252E+07,
2460448.500000000, A.D. 2024-May-18 00:00:00.0000, -3.378055807988013E+08, -3.517764303651321E+08, -6.280195222880787E+07,
2460455.500000000, A.D. 2024-May-25 00:00:00.0000, -3.299481223411114E+08, -3.535166509494613E+08, -6.378378934445535E+07,
2460462.500000000, A.D. 2024-Jun-01 00:00:00.0000, -3.219526684404172E+08, -3.551090129862813E+08, -6.473893613614218E+07,
2460469.500000000, A.D. 2024-Jun-08 00:00:00.0000, -3.138191283072020E+08, -3.565490626031872E+08, -6.566630216438921E+07,
2460476.500000000, A.D. 2024-Jun-15 00:00:00.0000, -3.055474386288248E+08, -3.578321490280051E+08, -6.656474656231764E+07,
2460483.500000000, A.D. 2024-Jun-22 00:00:00.0000, -2.971375687407408E+08, -3.589534102279428E+08, -6.743307441728565E+07,
2460490.500000000, A.D. 2024-Jun-29 00:00:00.0000, -2.885895289811728E+08, -3.599077578311276E+08, -6.827003265443243E+07,
2460497.500000000, A.D. 2024-Jul-06 00:00:00.0000, -2.799033796886842E+08, -3.606898637128050E+08, -6.907430583733429E+07,
2460504.500000000, A.D. 2024-Jul-13 00:00:00.0000, -2.710792390149675E+08, -3.612941453248290E+08, -6.984451180135341E+07,
2460511.500000000, A.D. 2024-Jul-20 00:00:00.0000, -2.621172916786847E+08, -3.617147485118663E+08, -7.057919680734597E+07,
2460518.500000000, A.D. 2024-Jul-27 00:00:00.0000, -2.530177994776576E+08, -3.619455286549054E+08, -7.127683019336253E+07,
2460525.500000000, A.D. 2024-Aug-03 00:00:00.0000, -2.437811134729303E+08, -3.619800303871202E+08, -7.193579853488164E+07,
2460532.500000000, A.D. 2024-Aug-10 00:00:00.0000, -2.344076878955708E+08, -3.618114657452842E+08, -7.255439927918975E+07,
2460539.500000000, A.D. 2024-Aug-17 00:00:00.0000, -2.248980959817812E+08, -3.614326905816287E+08, -7.313083380119777E+07,
2460546.500000000, A.D. 2024-Aug-24 00:00:00.0000, -2.152530480044193E+08, -3.608361790916799E+08, -7.366319982372186E+07,
2460553.500000000, A.D. 2024-Aug-31 00:00:00.0000, -2.054734117318737E+08, -3.600139963385178E+08, -7.414948314959367E+07,
2460560.500000000, A.D. 2024-Sep-07 00:00:00.0000, -1.955602353552392E+08, -3.589577684511535E+08, -7.458754865275721E+07,
2460567.500000000, A.D. 2024-Sep-14 00:00:00.0000, -1.855147732759412E+08, -3.576586492897122E+08, -7.497513036987704E+07,
2460574.500000000, A.D. 2024-Sep-21 00:00:00.0000, -1.753385173432558E+08, -3.561072829375648E+08, -7.530982037752615E+07,
2460581.500000000, A.D. 2024-Sep-28 00:00:00.0000, -1.650332346876467E+08, -3.542937650076974E+08, -7.558905656799027E+07,
2460588.500000000, A.D. 2024-Oct-05 00:00:00.0000, -1.546010092567898E+08, -3.522076025146488E+08, -7.581010954371974E+07,
2460595.500000000, A.D. 2024-Oct-12 00:00:00.0000, -1.440442883351488E+08, -3.498376690837088E+08, -7.597006822717439E+07,
2460602.500000000, A.D. 2024-Oct-19 00:00:00.0000, -1.333659368915487E+08, -3.471721555251302E+08, -7.606582391071407E+07,
2460609.500000000, A.D. 2024-Oct-26 00:00:00.0000, -1.225693010894619E+08, -3.441985163466938E+08, -7.609405266194105E+07,
2460616.500000000, A.D. 2024-Nov-02 00:00:00.0000, -1.116582822546931E+08, -3.409034121544284E+08, -7.605119596296659E+07,
2460623.500000000, A.D. 2024-Nov-09 00:00:00.0000, -1.006374230537645E+08, -3.372726477751536E+08, -7.593343942522961E+07,
2460630.500000000, A.D. 2024-Nov-16 00:00:00.0000, -8.951200806488875E+07, -3.332911060432485E+08, -7.573668941293676E+07,
2460637.500000000, A.D. 2024-Nov-23 00:00:00.0000, -7.828818133393240E+07, -3.289426773807011E+08, -7.545654741739649E+07,
2460644.500000000, A.D. 2024-Nov-30 00:00:00.0000, -6.697308386483090E+07, -3.242101854946753E+08, -7.508828205198134E+07,
2460651.500000000, A.D. 2024-Dec-07 00:00:00.0000, -5.557501440303018E+07, -3.190753093486058E+08, -7.462679854778467E+07,
2460658.500000000, A.D. 2024-Dec-14 00:00:00.0000, -4.410361871806849E+07, -3.135185011833885E+08, -7.406660551488197E+07,
2460665.500000000, A.D. 2024-Dec-21 00:00:00.0000, -3.257011509661203E+07, -3.075189034317899E+08, -7.340177887226817E+07,
2460672.500000000, A.D. 2024-Dec-28 00:00:00.0000, -2.098756049243670E+07, -3.010542699474072E+08, -7.262592352158761E+07,
2460679.500000000, A.D. 2025-Jan-04 00:00:00.0000, -9.371162345152255E+06, -2.941008928227267E+08, -7.173213317168631E+07,
2460686.500000000, A.D. 2025-Jan-11 00:00:00.0000, 2.261353152074181E+06, -2.866335384493885E+08, -7.071294868862322E+07,
2460693.500000000, A.D. 2025-Jan-18 00:00:00.0000, 1.388930498100583E+07, -2.786254013518487E+08, -6.956031610127383E+07,
2460700.500000000, A.D. 2025-Jan-25 00:00:00.0000, 2.548854169186029E+07, -2.700480870496728E+08, -6.826554613453430E+07,
2460707.500000000, A.D. 2025-Feb-01 00:00:00.0000, 3.703083302911817E+07, -2.608716390934569E+08, -6.681927806563133E+07,
2460714.500000000, A.D. 2025-Feb-08 00:00:00.0000, 4.848315434477723E+07, -2.510646312477111E+08, -6.521145205289951E+07,
$$EOE